[
    {
        "CCSDS_OMM_VERS": "3.0",
        "COMMENT": "GENERATED VIA SPACE-TRACK.ORG API",
        "CREATION_DATE": "2025-04-14T06:36:32",
        "ORIGINATOR": "18 SPCS",
        "OBJECT_NAME": "NAVSTAR 68 (USA 242)",
        "OBJECT_ID": "2013-023A",
        "CENTER_NAME": "EARTH",
        "REF_FRAME": "TEME",
        "TIME_SYSTEM": "UTC",
        "MEAN_ELEMENT_THEORY": "SGP4",
        "EPOCH": "2025-04-13T21:46:50.618784",
        "MEAN_MOTION": "2.00561657",
        "ECCENTRICITY": "0.01333100",
        "INCLINATION": "54.8544",
        "RA_OF_ASC_NODE": "286.4235",
        "ARG_OF_PERICENTER": "47.4035",
        "MEAN_ANOMALY": "313.6999",
        "EPHEMERIS_TYPE": "0",
        "CLASSIFICATION_TYPE": "U",
        "NORAD_CAT_ID": "39166",
        "ELEMENT_SET_NO": "999",
        "REV_AT_EPOCH": "8725",
        "BSTAR": "0.00000000000000",
        "MEAN_MOTION_DOT": "-0.00000035",
        "MEAN_MOTION_DDOT": "0.0000000000000",
        "SEMIMAJOR_AXIS": "26560.520",
        "PERIOD": "717.984",
        "APOAPSIS": "20536.463",
        "PERIAPSIS": "19828.306",
        "OBJECT_TYPE": "PAYLOAD",
        "RCS_SIZE": "LARGE",
        "COUNTRY_CODE": "US",
        "LAUNCH_DATE": "2013-05-15",
        "SITE": "AFETR",
        "DECAY_DATE": null,
        "FILE": "4701375",
        "GP_ID": "285553923",
        "TLE_LINE0": "0 NAVSTAR 68 (USA 242)",
        "TLE_LINE1": "1 39166U 13023A   25103.90753031 -.00000035  00000-0  00000+0 0  9991",
        "TLE_LINE2": "2 39166  54.8544 286.4235 0133310  47.4035 313.6999  2.00561657 87255"
    }
]